CCSDS_OMM_VERS = 2.0
CREATION_DATE  = 
ORIGINATOR     = 

OBJECT_NAME    = 2026-027A
OBJECT_ID      = 2026-027A
CENTER_NAME    = EARTH
REF_FRAME      = TEME
TIME_SYSTEM    = UTC
MEAN_ELEMENT_THEORY = SGP/SGP4

EPOCH          = 2026-03-12T22:24:56.292768
MEAN_MOTION    = 15.17778398
ECCENTRICITY   = .0010408
INCLINATION    = 97.4902
RA_OF_ASC_NODE = 200.9131
ARG_OF_PERICENTER = 182.9550
MEAN_ANOMALY   = 177.1624

EPHEMERIS_TYPE = 0
CLASSIFICATION_TYPE = U
NORAD_CAT_ID   = 67746
ELEMENT_SET_NO = 999
REV_AT_EPOCH   = 435
BSTAR          = .45277E-3
MEAN_MOTION_DOT = .9096E-4
MEAN_MOTION_DDOT = 0

CCSDS_OMM_VERS = 2.0
CREATION_DATE  = 
ORIGINATOR     = 

OBJECT_NAME    = 2026-027B
OBJECT_ID      = 2026-027B
CENTER_NAME    = EARTH
REF_FRAME      = TEME
TIME_SYSTEM    = UTC
MEAN_ELEMENT_THEORY = SGP/SGP4

EPOCH          = 2026-03-12T22:22:11.908128
MEAN_MOTION    = 15.17878308
ECCENTRICITY   = .0010534
INCLINATION    = 97.4896
RA_OF_ASC_NODE = 200.9135
ARG_OF_PERICENTER = 185.3593
MEAN_ANOMALY   = 174.7529

EPHEMERIS_TYPE = 0
CLASSIFICATION_TYPE = U
NORAD_CAT_ID   = 67747
ELEMENT_SET_NO = 999
REV_AT_EPOCH   = 435
BSTAR          = .44844E-3
MEAN_MOTION_DOT = .9035E-4
MEAN_MOTION_DDOT = 0

CCSDS_OMM_VERS = 2.0
CREATION_DATE  = 
ORIGINATOR     = 

OBJECT_NAME    = 2026-027D
OBJECT_ID      = 2026-027D
CENTER_NAME    = EARTH
REF_FRAME      = TEME
TIME_SYSTEM    = UTC
MEAN_ELEMENT_THEORY = SGP/SGP4

EPOCH          = 2026-03-12T23:48:20.464128
MEAN_MOTION    = 15.18247440
ECCENTRICITY   = .0010471
INCLINATION    = 97.4902
RA_OF_ASC_NODE = 200.9895
ARG_OF_PERICENTER = 192.7082
MEAN_ANOMALY   = 167.3889

EPHEMERIS_TYPE = 0
CLASSIFICATION_TYPE = U
NORAD_CAT_ID   = 67749
ELEMENT_SET_NO = 999
REV_AT_EPOCH   = 431
BSTAR          = .5177E-3
MEAN_MOTION_DOT = .10554E-3
MEAN_MOTION_DDOT = 0

CCSDS_OMM_VERS = 2.0
CREATION_DATE  = 
ORIGINATOR     = 

OBJECT_NAME    = 2026-027E
OBJECT_ID      = 2026-027E
CENTER_NAME    = EARTH
REF_FRAME      = TEME
TIME_SYSTEM    = UTC
MEAN_ELEMENT_THEORY = SGP/SGP4

EPOCH          = 2026-03-12T23:48:48.868992
MEAN_MOTION    = 15.18187904
ECCENTRICITY   = .0009745
INCLINATION    = 97.4913
RA_OF_ASC_NODE = 200.9932
ARG_OF_PERICENTER = 193.3010
MEAN_ANOMALY   = 166.7968

EPHEMERIS_TYPE = 0
CLASSIFICATION_TYPE = U
NORAD_CAT_ID   = 67750
ELEMENT_SET_NO = 999
REV_AT_EPOCH   = 436
BSTAR          = .45354E-3
MEAN_MOTION_DOT = .9219E-4
MEAN_MOTION_DDOT = 0

CCSDS_OMM_VERS = 2.0
CREATION_DATE  = 
ORIGINATOR     = 

OBJECT_NAME    = 2026-027F
OBJECT_ID      = 2026-027F
CENTER_NAME    = EARTH
REF_FRAME      = TEME
TIME_SYSTEM    = UTC
MEAN_ELEMENT_THEORY = SGP/SGP4

EPOCH          = 2026-03-12T19:00:38.279808
MEAN_MOTION    = 15.17898571
ECCENTRICITY   = .000924
INCLINATION    = 97.4916
RA_OF_ASC_NODE = 200.8018
ARG_OF_PERICENTER = 190.5872
MEAN_ANOMALY   = 169.5169

EPHEMERIS_TYPE = 0
CLASSIFICATION_TYPE = U
NORAD_CAT_ID   = 67751
ELEMENT_SET_NO = 999
REV_AT_EPOCH   = 433
BSTAR          = .1946E-3
MEAN_MOTION_DOT = .3881E-4
MEAN_MOTION_DDOT = 0

CCSDS_OMM_VERS = 2.0
CREATION_DATE  = 
ORIGINATOR     = 

OBJECT_NAME    = 2026-027G
OBJECT_ID      = 2026-027G
CENTER_NAME    = EARTH
REF_FRAME      = TEME
TIME_SYSTEM    = UTC
MEAN_ELEMENT_THEORY = SGP/SGP4

EPOCH          = 2026-03-12T22:56:50.875296
MEAN_MOTION    = 15.12201746
ECCENTRICITY   = .0012153
INCLINATION    = 97.4911
RA_OF_ASC_NODE = 200.8869
ARG_OF_PERICENTER = 215.6428
MEAN_ANOMALY   = 144.3992

EPHEMERIS_TYPE = 0
CLASSIFICATION_TYPE = U
NORAD_CAT_ID   = 67752
ELEMENT_SET_NO = 999
REV_AT_EPOCH   = 435
BSTAR          = .49601E-3
MEAN_MOTION_DOT = .8518E-4
MEAN_MOTION_DDOT = 0

CCSDS_OMM_VERS = 2.0
CREATION_DATE  = 
ORIGINATOR     = 

OBJECT_NAME    = JIELONG-3 R/B
OBJECT_ID      = 2026-027H
CENTER_NAME    = EARTH
REF_FRAME      = TEME
TIME_SYSTEM    = UTC
MEAN_ELEMENT_THEORY = SGP/SGP4

EPOCH          = 2026-03-12T22:24:03.427200
MEAN_MOTION    = 15.80005378
ECCENTRICITY   = .0200535
INCLINATION    = 97.5106
RA_OF_ASC_NODE = 203.2433
ARG_OF_PERICENTER = 233.0885
MEAN_ANOMALY   = 125.1864

EPHEMERIS_TYPE = 0
CLASSIFICATION_TYPE = U
NORAD_CAT_ID   = 67753
ELEMENT_SET_NO = 999
REV_AT_EPOCH   = 449
BSTAR          = .75838E-3
MEAN_MOTION_DOT = .645225E-2
MEAN_MOTION_DDOT = .2358E-5

CCSDS_OMM_VERS = 2.0
CREATION_DATE  = 
ORIGINATOR     = 

OBJECT_NAME    = 2025-313BF
OBJECT_ID      = 2025-313BF
CENTER_NAME    = EARTH
REF_FRAME      = TEME
TIME_SYSTEM    = UTC
MEAN_ELEMENT_THEORY = SGP/SGP4

EPOCH          = 2026-03-12T23:07:18.507360
MEAN_MOTION    = 15.30564799
ECCENTRICITY   = .0007601
INCLINATION    = 97.3995
RA_OF_ASC_NODE = 148.6195
ARG_OF_PERICENTER = 320.6912
MEAN_ANOMALY   = 39.3776

EPHEMERIS_TYPE = 0
CLASSIFICATION_TYPE = U
NORAD_CAT_ID   = 67755
ELEMENT_SET_NO = 999
REV_AT_EPOCH   = 702
BSTAR          = .44906E-3
MEAN_MOTION_DOT = .13213E-3
MEAN_MOTION_DDOT = 0

CCSDS_OMM_VERS = 2.0
CREATION_DATE  = 
ORIGINATOR     = 

OBJECT_NAME    = 2026-028A
OBJECT_ID      = 2026-028A
CENTER_NAME    = EARTH
REF_FRAME      = TEME
TIME_SYSTEM    = UTC
MEAN_ELEMENT_THEORY = SGP/SGP4

EPOCH          = 2026-03-12T07:30:12.723264
MEAN_MOTION    = 1.00209192
ECCENTRICITY   = .0003542
INCLINATION    = 0.4644
RA_OF_ASC_NODE = 290.6263
ARG_OF_PERICENTER = 42.5478
MEAN_ANOMALY   = 26.7878

EPHEMERIS_TYPE = 0
CLASSIFICATION_TYPE = U
NORAD_CAT_ID   = 67756
ELEMENT_SET_NO = 999
REV_AT_EPOCH   = 28
BSTAR          = 0
MEAN_MOTION_DOT = -.96E-6
MEAN_MOTION_DDOT = 0

CCSDS_OMM_VERS = 2.0
CREATION_DATE  = 
ORIGINATOR     = 

OBJECT_NAME    = JAM-E JAM 1
OBJECT_ID      = 2026-028B
CENTER_NAME    = EARTH
REF_FRAME      = TEME
TIME_SYSTEM    = UTC
MEAN_ELEMENT_THEORY = SGP/SGP4

EPOCH          = 2026-03-12T19:01:04.274112
MEAN_MOTION    = 1.00231393
ECCENTRICITY   = .000575
INCLINATION    = 0.4861
RA_OF_ASC_NODE = 286.1715
ARG_OF_PERICENTER = 134.5705
MEAN_ANOMALY   = 68.8815

EPHEMERIS_TYPE = 0
CLASSIFICATION_TYPE = U
NORAD_CAT_ID   = 67757
ELEMENT_SET_NO = 999
REV_AT_EPOCH   = 15
BSTAR          = 0
MEAN_MOTION_DOT = .155E-5
MEAN_MOTION_DDOT = 0

CCSDS_OMM_VERS = 2.0
CREATION_DATE  = 
ORIGINATOR     = 

OBJECT_NAME    = KUIPER-00159
OBJECT_ID      = 2026-030A
CENTER_NAME    = EARTH
REF_FRAME      = TEME
TIME_SYSTEM    = UTC
MEAN_ELEMENT_THEORY = SGP/SGP4

EPOCH          = 2026-03-12T18:07:56.705952
MEAN_MOTION    = 15.35950165
ECCENTRICITY   = .0005305
INCLINATION    = 51.8850
RA_OF_ASC_NODE = 204.3801
ARG_OF_PERICENTER = 51.4706
MEAN_ANOMALY   = 308.6755

EPHEMERIS_TYPE = 0
CLASSIFICATION_TYPE = U
NORAD_CAT_ID   = 67764
ELEMENT_SET_NO = 999
REV_AT_EPOCH   = 556
BSTAR          = .12608E-2
MEAN_MOTION_DOT = .44699E-3
MEAN_MOTION_DDOT = 0

